<?xml version="1.0" encoding="UTF-8"?>
<ndm xmlns:xsi="http://www.w3.org/2001/XMLSchema-instance" xsi:noNamespaceSchemaLocation="https://sanaregistry.org/r/ndmxml_unqualified/ndmxml-2.0.0-master-2.0.xsd">
<omm id="CCSDS_OMM_VERS" version="2.0">
<header><CREATION_DATE/><ORIGINATOR/></header><body><segment><metadata><OBJECT_NAME>ORBCOMM FM05</OBJECT_NAME><OBJECT_ID>1997-084F</OBJECT_ID><CENTER_NAME>EARTH</CENTER_NAME><REF_FRAME>TEME</REF_FRAME><TIME_SYSTEM>UTC</TIME_SYSTEM><MEAN_ELEMENT_THEORY>SGP4</MEAN_ELEMENT_THEORY></metadata><data><meanElements><EPOCH>2024-11-24T04:53:19.457088</EPOCH><MEAN_MOTION>14.44510920</MEAN_MOTION><ECCENTRICITY>.0002842</ECCENTRICITY><INCLINATION>45.0144</INCLINATION><RA_OF_ASC_NODE>271.2802</RA_OF_ASC_NODE><ARG_OF_PERICENTER>298.7027</ARG_OF_PERICENTER><MEAN_ANOMALY>61.3538</MEAN_ANOMALY></meanElements><tleParameters><EPHEMERIS_TYPE>0</EPHEMERIS_TYPE><CLASSIFICATION_TYPE>U</CLASSIFICATION_TYPE><NORAD_CAT_ID>25117</NORAD_CAT_ID><ELEMENT_SET_NO>999</ELEMENT_SET_NO><REV_AT_EPOCH>41095</REV_AT_EPOCH><BSTAR>.13332E-2</BSTAR><MEAN_MOTION_DOT>.4508E-4</MEAN_MOTION_DOT><MEAN_MOTION_DDOT>0</MEAN_MOTION_DDOT></tleParameters></data></segment></body></omm>
<omm id="CCSDS_OMM_VERS" version="2.0">
<header><CREATION_DATE/><ORIGINATOR/></header><body><segment><metadata><OBJECT_NAME>ORBCOMM FM06</OBJECT_NAME><OBJECT_ID>1997-084G</OBJECT_ID><CENTER_NAME>EARTH</CENTER_NAME><REF_FRAME>TEME</REF_FRAME><TIME_SYSTEM>UTC</TIME_SYSTEM><MEAN_ELEMENT_THEORY>SGP4</MEAN_ELEMENT_THEORY></metadata><data><meanElements><EPOCH>2024-11-24T07:38:50.110656</EPOCH><MEAN_MOTION>14.44678689</MEAN_MOTION><ECCENTRICITY>.0002197</ECCENTRICITY><INCLINATION>45.0137</INCLINATION><RA_OF_ASC_NODE>270.7282</RA_OF_ASC_NODE><ARG_OF_PERICENTER>316.0120</ARG_OF_PERICENTER><MEAN_ANOMALY>208.9695</MEAN_ANOMALY></meanElements><tleParameters><EPHEMERIS_TYPE>0</EPHEMERIS_TYPE><CLASSIFICATION_TYPE>U</CLASSIFICATION_TYPE><NORAD_CAT_ID>25118</NORAD_CAT_ID><ELEMENT_SET_NO>999</ELEMENT_SET_NO><REV_AT_EPOCH>41188</REV_AT_EPOCH><BSTAR>.14112E-2</BSTAR><MEAN_MOTION_DOT>.4797E-4</MEAN_MOTION_DOT><MEAN_MOTION_DDOT>0</MEAN_MOTION_DDOT></tleParameters></data></segment></body></omm>
<omm id="CCSDS_OMM_VERS" version="2.0">
<header><CREATION_DATE/><ORIGINATOR/></header><body><segment><metadata><OBJECT_NAME>ORBCOMM FM07</OBJECT_NAME><OBJECT_ID>1997-084H</OBJECT_ID><CENTER_NAME>EARTH</CENTER_NAME><REF_FRAME>TEME</REF_FRAME><TIME_SYSTEM>UTC</TIME_SYSTEM><MEAN_ELEMENT_THEORY>SGP4</MEAN_ELEMENT_THEORY></metadata><data><meanElements><EPOCH>2024-11-24T07:00:51.882624</EPOCH><MEAN_MOTION>14.44546923</MEAN_MOTION><ECCENTRICITY>.0003266</ECCENTRICITY><INCLINATION>45.0132</INCLINATION><RA_OF_ASC_NODE>271.5399</RA_OF_ASC_NODE><ARG_OF_PERICENTER>286.2910</ARG_OF_PERICENTER><MEAN_ANOMALY>73.7582</MEAN_ANOMALY></meanElements><tleParameters><EPHEMERIS_TYPE>0</EPHEMERIS_TYPE><CLASSIFICATION_TYPE>U</CLASSIFICATION_TYPE><NORAD_CAT_ID>25119</NORAD_CAT_ID><ELEMENT_SET_NO>999</ELEMENT_SET_NO><REV_AT_EPOCH>41187</REV_AT_EPOCH><BSTAR>.1307E-2</BSTAR><MEAN_MOTION_DOT>.442E-4</MEAN_MOTION_DOT><MEAN_MOTION_DDOT>0</MEAN_MOTION_DDOT></tleParameters></data></segment></body></omm>
<omm id="CCSDS_OMM_VERS" version="2.0">
<header><CREATION_DATE/><ORIGINATOR/></header><body><segment><metadata><OBJECT_NAME>ORBCOMM FM03</OBJECT_NAME><OBJECT_ID>1998-007B</OBJECT_ID><CENTER_NAME>EARTH</CENTER_NAME><REF_FRAME>TEME</REF_FRAME><TIME_SYSTEM>UTC</TIME_SYSTEM><MEAN_ELEMENT_THEORY>SGP4</MEAN_ELEMENT_THEORY></metadata><data><meanElements><EPOCH>2024-11-24T07:45:45.220320</EPOCH><MEAN_MOTION>14.33427925</MEAN_MOTION><ECCENTRICITY>.0048832</ECCENTRICITY><INCLINATION>107.9661</INCLINATION><RA_OF_ASC_NODE>75.0175</RA_OF_ASC_NODE><ARG_OF_PERICENTER>247.5724</ARG_OF_PERICENTER><MEAN_ANOMALY>112.0238</MEAN_ANOMALY></meanElements><tleParameters><EPHEMERIS_TYPE>0</EPHEMERIS_TYPE><CLASSIFICATION_TYPE>U</CLASSIFICATION_TYPE><NORAD_CAT_ID>25158</NORAD_CAT_ID><ELEMENT_SET_NO>999</ELEMENT_SET_NO><REV_AT_EPOCH>39467</REV_AT_EPOCH><BSTAR>.14231E-2</BSTAR><MEAN_MOTION_DOT>.3858E-4</MEAN_MOTION_DOT><MEAN_MOTION_DDOT>0</MEAN_MOTION_DDOT></tleParameters></data></segment></body></omm>
<omm id="CCSDS_OMM_VERS" version="2.0">
<header><CREATION_DATE/><ORIGINATOR/></header><body><segment><metadata><OBJECT_NAME>ORBCOMM FM04</OBJECT_NAME><OBJECT_ID>1998-007C</OBJECT_ID><CENTER_NAME>EARTH</CENTER_NAME><REF_FRAME>TEME</REF_FRAME><TIME_SYSTEM>UTC</TIME_SYSTEM><MEAN_ELEMENT_THEORY>SGP4</MEAN_ELEMENT_THEORY></metadata><data><meanElements><EPOCH>2024-11-24T11:37:23.606400</EPOCH><MEAN_MOTION>14.33700136</MEAN_MOTION><ECCENTRICITY>.0044462</ECCENTRICITY><INCLINATION>107.9647</INCLINATION><RA_OF_ASC_NODE>78.4242</RA_OF_ASC_NODE><ARG_OF_PERICENTER>245.0288</ARG_OF_PERICENTER><MEAN_ANOMALY>114.6229</MEAN_ANOMALY></meanElements><tleParameters><EPHEMERIS_TYPE>0</EPHEMERIS_TYPE><CLASSIFICATION_TYPE>U</CLASSIFICATION_TYPE><NORAD_CAT_ID>25159</NORAD_CAT_ID><ELEMENT_SET_NO>999</ELEMENT_SET_NO><REV_AT_EPOCH>39487</REV_AT_EPOCH><BSTAR>.12071E-2</BSTAR><MEAN_MOTION_DOT>.3263E-4</MEAN_MOTION_DOT><MEAN_MOTION_DDOT>0</MEAN_MOTION_DDOT></tleParameters></data></segment></body></omm>
<omm id="CCSDS_OMM_VERS" version="2.0">
<header><CREATION_DATE/><ORIGINATOR/></header><body><segment><metadata><OBJECT_NAME>ORBCOMM FM17</OBJECT_NAME><OBJECT_ID>1998-046A</OBJECT_ID><CENTER_NAME>EARTH</CENTER_NAME><REF_FRAME>TEME</REF_FRAME><TIME_SYSTEM>UTC</TIME_SYSTEM><MEAN_ELEMENT_THEORY>SGP4</MEAN_ELEMENT_THEORY></metadata><data><meanElements><EPOCH>2024-11-23T21:57:37.184544</EPOCH><MEAN_MOTION>14.34231963</MEAN_MOTION><ECCENTRICITY>.0002342</ECCENTRICITY><INCLINATION>44.9928</INCLINATION><RA_OF_ASC_NODE>145.8184</RA_OF_ASC_NODE><ARG_OF_PERICENTER>240.5885</ARG_OF_PERICENTER><MEAN_ANOMALY>119.4728</MEAN_ANOMALY></meanElements><tleParameters><EPHEMERIS_TYPE>0</EPHEMERIS_TYPE><CLASSIFICATION_TYPE>U</CLASSIFICATION_TYPE><NORAD_CAT_ID>25413</NORAD_CAT_ID><ELEMENT_SET_NO>999</ELEMENT_SET_NO><REV_AT_EPOCH>37369</REV_AT_EPOCH><BSTAR>.78843E-3</BSTAR><MEAN_MOTION_DOT>.2091E-4</MEAN_MOTION_DOT><MEAN_MOTION_DDOT>0</MEAN_MOTION_DDOT></tleParameters></data></segment></body></omm>
<omm id="CCSDS_OMM_VERS" version="2.0">
<header><CREATION_DATE/><ORIGINATOR/></header><body><segment><metadata><OBJECT_NAME>ORBCOMM FM18</OBJECT_NAME><OBJECT_ID>1998-046B</OBJECT_ID><CENTER_NAME>EARTH</CENTER_NAME><REF_FRAME>TEME</REF_FRAME><TIME_SYSTEM>UTC</TIME_SYSTEM><MEAN_ELEMENT_THEORY>SGP4</MEAN_ELEMENT_THEORY></metadata><data><meanElements><EPOCH>2024-11-24T13:12:14.427072</EPOCH><MEAN_MOTION>14.37373904</MEAN_MOTION><ECCENTRICITY>.00047</ECCENTRICITY><INCLINATION>44.9929</INCLINATION><RA_OF_ASC_NODE>65.4603</RA_OF_ASC_NODE><ARG_OF_PERICENTER>301.7383</ARG_OF_PERICENTER><MEAN_ANOMALY>58.3006</MEAN_ANOMALY></meanElements><tleParameters><EPHEMERIS_TYPE>0</EPHEMERIS_TYPE><CLASSIFICATION_TYPE>U</CLASSIFICATION_TYPE><NORAD_CAT_ID>25414</NORAD_CAT_ID><ELEMENT_SET_NO>999</ELEMENT_SET_NO><REV_AT_EPOCH>37479</REV_AT_EPOCH><BSTAR>.12496E-2</BSTAR><MEAN_MOTION_DOT>.3627E-4</MEAN_MOTION_DOT><MEAN_MOTION_DDOT>0</MEAN_MOTION_DDOT></tleParameters></data></segment></body></omm>
<omm id="CCSDS_OMM_VERS" version="2.0">
<header><CREATION_DATE/><ORIGINATOR/></header><body><segment><metadata><OBJECT_NAME>ORBCOMM FM19</OBJECT_NAME><OBJECT_ID>1998-046C</OBJECT_ID><CENTER_NAME>EARTH</CENTER_NAME><REF_FRAME>TEME</REF_FRAME><TIME_SYSTEM>UTC</TIME_SYSTEM><MEAN_ELEMENT_THEORY>SGP4</MEAN_ELEMENT_THEORY></metadata><data><meanElements><EPOCH>2024-11-24T11:32:49.793568</EPOCH><MEAN_MOTION>14.37199465</MEAN_MOTION><ECCENTRICITY>.0003918</ECCENTRICITY><INCLINATION>44.9942</INCLINATION><RA_OF_ASC_NODE>67.4710</RA_OF_ASC_NODE><ARG_OF_PERICENTER>287.8724</ARG_OF_PERICENTER><MEAN_ANOMALY>129.7420</MEAN_ANOMALY></meanElements><tleParameters><EPHEMERIS_TYPE>0</EPHEMERIS_TYPE><CLASSIFICATION_TYPE>U</CLASSIFICATION_TYPE><NORAD_CAT_ID>25415</NORAD_CAT_ID><ELEMENT_SET_NO>999</ELEMENT_SET_NO><REV_AT_EPOCH>37474</REV_AT_EPOCH><BSTAR>.1273E-2</BSTAR><MEAN_MOTION_DOT>.3684E-4</MEAN_MOTION_DOT><MEAN_MOTION_DDOT>0</MEAN_MOTION_DDOT></tleParameters></data></segment></body></omm>

</ndm>
