ORBCOMM FM05            
1 25117U 97084F   24329.20369742  .00004508  00000+0  13332-2 0  9997
2 25117  45.0144 271.2802 0002842 298.7027  61.3538 14.44510920410954
ORBCOMM FM06            
1 25118U 97084G   24329.31863554  .00004797  00000+0  14112-2 0  9997
2 25118  45.0137 270.7282 0002197 316.0120 208.9695 14.44678689411887
ORBCOMM FM07            
1 25119U 97084H   24329.29226716  .00004420  00000+0  13070-2 0  9993
2 25119  45.0132 271.5399 0003266 286.2910  73.7582 14.44546923411871
ORBCOMM FM03            
1 25158U 98007B   24329.32344005  .00003858  00000+0  14231-2 0  9992
2 25158 107.9661  75.0175 0048832 247.5724 112.0238 14.33427925394670
ORBCOMM FM04            
1 25159U 98007C   24329.48430100  .00003263  00000+0  12071-2 0  9992
2 25159 107.9647  78.4242 0044462 245.0288 114.6229 14.33700136394878
ORBCOMM FM17            
1 25413U 98046A   24328.91501371  .00002091  00000+0  78843-3 0  9992
2 25413  44.9928 145.8184 0002342 240.5885 119.4728 14.34231963373693
ORBCOMM FM18            
1 25414U 98046B   24329.55016698  .00003627  00000+0  12496-2 0  9994
2 25414  44.9929  65.4603 0004700 301.7383  58.3006 14.37373904374798
ORBCOMM FM19            
1 25415U 98046C   24329.48113187  .00003684  00000+0  12730-2 0  9992
2 25415  44.9942  67.4710 0003918 287.8724 129.7420 14.37199465374744
